{
  "norad_id": 45603,
  "name": "XINGYUN-2 02",
  "history": [
    {
      "epoch": "2026-03-28T22:39:13.885344Z",
      "apogee_km": 540.1102858506874,
      "perigee_km": 525.0496221784642,
      "latitude_deg": 3.41760424801651e-05,
      "longitude_deg": -70.80725687430453,
      "height_km": 543.1840816114601,
      "semi_major_axis_km": 6910.716954014575,
      "eccentricity": 0.00108966,
      "inclination_deg": 97.5109,
      "raan_deg": 95.3577,
      "arg_perigee_deg": 178.4515,
      "mean_anomaly_deg": 181.6751,
      "mean_motion_rev_day": 15.11186633
    },
    {
      "epoch": "2026-03-29T01:49:55.841664Z",
      "apogee_km": 540.1364999137922,
      "perigee_km": 525.0255239089465,
      "latitude_deg": 6.953701280572127e-05,
      "longitude_deg": -118.4820085074369,
      "height_km": 543.208390574714,
      "semi_major_axis_km": 6910.718011911369,
      "eccentricity": 0.0010933,
      "inclination_deg": 97.5108,
      "raan_deg": 95.4883,
      "arg_perigee_deg": 178.016,
      "mean_anomaly_deg": 182.1116,
      "mean_motion_rev_day": 15.11186286
    },
    {
      "epoch": "2026-03-30T01:40:10.269984Z",
      "apogee_km": 540.115422398676,
      "perigee_km": 524.9824023877172,
      "latitude_deg": 6.193192541927729e-05,
      "longitude_deg": -116.04568977738903,
      "height_km": 543.154076099401,
      "semi_major_axis_km": 6910.685912393196,
      "eccentricity": 0.0010949,
      "inclination_deg": 97.5106,
      "raan_deg": 96.4637,
      "arg_perigee_deg": 174.3564,
      "mean_anomaly_deg": 185.7792,
      "mean_motion_rev_day": 15.11196815
    },
    {
      "epoch": "2026-03-30T06:26:13.127136Z",
      "apogee_km": 540.1283732917318,
      "perigee_km": 524.9684027560234,
      "latitude_deg": 1.4238902007392472e-06,
      "longitude_deg": 172.44162094772963,
      "height_km": 543.1577017273469,
      "semi_major_axis_km": 6910.685388023878,
      "eccentricity": 0.00109685,
      "inclination_deg": 97.5103,
      "raan_deg": 96.6587,
      "arg_perigee_deg": 173.6976,
      "mean_anomaly_deg": 186.4394,
      "mean_motion_rev_day": 15.11196987
    },
    {
      "epoch": "2026-03-30T14:22:57.904320Z",
      "apogee_km": 540.1574650771745,
      "perigee_km": 524.9448290452847,
      "latitude_deg": -2.7426623907191337e-05,
      "longitude_deg": 53.253832275266504,
      "height_km": 543.1666523398643,
      "semi_major_axis_km": 6910.688147061229,
      "eccentricity": 0.00110066,
      "inclination_deg": 97.5102,
      "raan_deg": 96.9838,
      "arg_perigee_deg": 172.4718,
      "mean_anomaly_deg": 187.6679,
      "mean_motion_rev_day": 15.11196082
    },
    {
      "epoch": "2026-03-30T23:55:03.476064Z",
      "apogee_km": 540.1622409927768,
      "perigee_km": 524.9038961216065,
      "latitude_deg": 2.076034109003793e-05,
      "longitude_deg": -89.7708728333124,
      "height_km": 543.146586282817,
      "semi_major_axis_km": 6910.670068557191,
      "eccentricity": 0.00110397,
      "inclination_deg": 97.5099,
      "raan_deg": 97.3739,
      "arg_perigee_deg": 171.191,
      "mean_anomaly_deg": 188.9516,
      "mean_motion_rev_day": 15.11202012
    },
    {
      "epoch": "2026-03-31T20:34:35.501376Z",
      "apogee_km": 540.2602658522237,
      "perigee_km": 524.7886769500501,
      "latitude_deg": 2.3346001501546127e-05,
      "longitude_deg": -39.657441472423855,
      "height_km": 543.1683924284832,
      "semi_major_axis_km": 6910.661471401137,
      "eccentricity": 0.0011194,
      "inclination_deg": 97.5098,
      "raan_deg": 98.2192,
      "arg_perigee_deg": 168.1396,
      "mean_anomaly_deg": 192.01,
      "mean_motion_rev_day": 15.11204832
    },
    {
      "epoch": "2026-04-01T20:24:49.103712Z",
      "apogee_km": 540.3437555802402,
      "perigee_km": 524.6800787446,
      "latitude_deg": 6.991664003970402e-05,
      "longitude_deg": -37.21757812295082,
      "height_km": 543.1635028703611,
      "semi_major_axis_km": 6910.64891716242,
      "eccentricity": 0.0011333,
      "inclination_deg": 97.5095,
      "raan_deg": 99.1947,
      "arg_perigee_deg": 165.411,
      "mean_anomaly_deg": 194.745,
      "mean_motion_rev_day": 15.1120895
    },
    {
      "epoch": "2026-04-02T21:50:23.206848Z",
      "apogee_km": 540.3867741024769,
      "perigee_km": 524.5835633270608,
      "latitude_deg": 4.047195059539695e-05,
      "longitude_deg": -58.61348429835659,
      "height_km": 543.087674067895,
      "semi_major_axis_km": 6910.622168714769,
      "eccentricity": 0.0011434,
      "inclination_deg": 97.5092,
      "raan_deg": 100.2351,
      "arg_perigee_deg": 162.3916,
      "mean_anomaly_deg": 197.7713,
      "mean_motion_rev_day": 15.11217724
    },
    {
      "epoch": "2026-04-02T23:25:44.020416Z",
      "apogee_km": 540.4007414461621,
      "perigee_km": 524.5540116193351,
      "latitude_deg": 2.077094310309847e-05,
      "longitude_deg": -82.45046749852966,
      "height_km": 543.0984952651904,
      "semi_major_axis_km": 6910.614376532748,
      "eccentricity": 0.00114655,
      "inclination_deg": 97.5091,
      "raan_deg": 100.3001,
      "arg_perigee_deg": 162.3414,
      "mean_anomaly_deg": 197.8217,
      "mean_motion_rev_day": 15.1122028
    },
    {
      "epoch": "2026-04-03T21:40:35.831136Z",
      "apogee_km": 540.3971863825973,
      "perigee_km": 524.5042167864931,
      "latitude_deg": 5.0061373239062784e-08,
      "longitude_deg": -56.16962444115927,
      "height_km": 542.9541836514333,
      "semi_major_axis_km": 6910.587701584545,
      "eccentricity": 0.0011499,
      "inclination_deg": 97.5092,
      "raan_deg": 101.2105,
      "arg_perigee_deg": 159.3017,
      "mean_anomaly_deg": 200.8681,
      "mean_motion_rev_day": 15.1122903
    },
    {
      "epoch": "2026-04-04T05:37:19.891200Z",
      "apogee_km": 540.4204582635366,
      "perigee_km": 524.4610318075966,
      "latitude_deg": 6.0509369279641675e-05,
      "longitude_deg": -175.3537292539766,
      "height_km": 542.924756248687,
      "semi_major_axis_km": 6910.577745035566,
      "eccentricity": 0.00115471,
      "inclination_deg": 97.5094,
      "raan_deg": 101.5363,
      "arg_perigee_deg": 158.3064,
      "mean_anomaly_deg": 201.8658,
      "mean_motion_rev_day": 15.11232296
    },
    {
      "epoch": "2026-04-05T13:24:15.657120Z",
      "apogee_km": 540.4116781993007,
      "perigee_km": 524.3909771941999,
      "latitude_deg": 5.7342834645756474e-05,
      "longitude_deg": 67.90936461631505,
      "height_km": 542.6720889314612,
      "semi_major_axis_km": 6910.53832769675,
      "eccentricity": 0.00115915,
      "inclination_deg": 97.5098,
      "raan_deg": 102.837,
      "arg_perigee_deg": 154.0553,
      "mean_anomaly_deg": 206.1261,
      "mean_motion_rev_day": 15.11245226
    }
  ]
}